<?xml version="1.0" encoding="UTF-8"?>
<ndm xmlns:xsi="http://www.w3.org/2001/XMLSchema-instance" xsi:noNamespaceSchemaLocation="https://sanaregistry.org/r/ndmxml_unqualified/ndmxml-2.0.0-master-2.0.xsd">
<omm id="CCSDS_OMM_VERS" version="2.0">
<header><CREATION_DATE/><ORIGINATOR/></header><body><segment><metadata><OBJECT_NAME>ONEWEB-0589</OBJECT_NAME><OBJECT_ID>2022-166P</OBJECT_ID><CENTER_NAME>EARTH</CENTER_NAME><REF_FRAME>TEME</REF_FRAME><TIME_SYSTEM>UTC</TIME_SYSTEM><MEAN_ELEMENT_THEORY>SGP4</MEAN_ELEMENT_THEORY></metadata><data><meanElements><EPOCH>2025-06-19T09:12:35.570592</EPOCH><MEAN_MOTION>13.21827575</MEAN_MOTION><ECCENTRICITY>.000099</ECCENTRICITY><INCLINATION>87.9261</INCLINATION><RA_OF_ASC_NODE>316.3527</RA_OF_ASC_NODE><ARG_OF_PERICENTER>92.3162</ARG_OF_PERICENTER><MEAN_ANOMALY>267.8085</MEAN_ANOMALY></meanElements><tleParameters><EPHEMERIS_TYPE>0</EPHEMERIS_TYPE><CLASSIFICATION_TYPE>U</CLASSIFICATION_TYPE><NORAD_CAT_ID>54655</NORAD_CAT_ID><ELEMENT_SET_NO>999</ELEMENT_SET_NO><REV_AT_EPOCH>12361</REV_AT_EPOCH><BSTAR>-.59257E-4</BSTAR><MEAN_MOTION_DOT>-.11E-6</MEAN_MOTION_DOT><MEAN_MOTION_DDOT>0</MEAN_MOTION_DDOT></tleParameters></data></segment></body></omm>
<omm id="CCSDS_OMM_VERS" version="2.0">
<header><CREATION_DATE/><ORIGINATOR/></header><body><segment><metadata><OBJECT_NAME>ONEWEB-0590</OBJECT_NAME><OBJECT_ID>2022-166Q</OBJECT_ID><CENTER_NAME>EARTH</CENTER_NAME><REF_FRAME>TEME</REF_FRAME><TIME_SYSTEM>UTC</TIME_SYSTEM><MEAN_ELEMENT_THEORY>SGP4</MEAN_ELEMENT_THEORY></metadata><data><meanElements><EPOCH>2025-06-18T22:52:26.388480</EPOCH><MEAN_MOTION>13.21823800</MEAN_MOTION><ECCENTRICITY>.0001981</ECCENTRICITY><INCLINATION>87.9250</INCLINATION><RA_OF_ASC_NODE>316.4199</RA_OF_ASC_NODE><ARG_OF_PERICENTER>84.0318</ARG_OF_PERICENTER><MEAN_ANOMALY>276.1042</MEAN_ANOMALY></meanElements><tleParameters><EPHEMERIS_TYPE>0</EPHEMERIS_TYPE><CLASSIFICATION_TYPE>U</CLASSIFICATION_TYPE><NORAD_CAT_ID>54656</NORAD_CAT_ID><ELEMENT_SET_NO>999</ELEMENT_SET_NO><REV_AT_EPOCH>12354</REV_AT_EPOCH><BSTAR>-.13815E-3</BSTAR><MEAN_MOTION_DOT>-.44E-6</MEAN_MOTION_DOT><MEAN_MOTION_DDOT>0</MEAN_MOTION_DDOT></tleParameters></data></segment></body></omm>
<omm id="CCSDS_OMM_VERS" version="2.0">
<header><CREATION_DATE/><ORIGINATOR/></header><body><segment><metadata><OBJECT_NAME>ONEWEB-0591</OBJECT_NAME><OBJECT_ID>2022-166R</OBJECT_ID><CENTER_NAME>EARTH</CENTER_NAME><REF_FRAME>TEME</REF_FRAME><TIME_SYSTEM>UTC</TIME_SYSTEM><MEAN_ELEMENT_THEORY>SGP4</MEAN_ELEMENT_THEORY></metadata><data><meanElements><EPOCH>2025-06-19T02:48:49.521312</EPOCH><MEAN_MOTION>13.21826762</MEAN_MOTION><ECCENTRICITY>.0001677</ECCENTRICITY><INCLINATION>87.9261</INCLINATION><RA_OF_ASC_NODE>316.4059</RA_OF_ASC_NODE><ARG_OF_PERICENTER>94.3548</ARG_OF_PERICENTER><MEAN_ANOMALY>265.7778</MEAN_ANOMALY></meanElements><tleParameters><EPHEMERIS_TYPE>0</EPHEMERIS_TYPE><CLASSIFICATION_TYPE>U</CLASSIFICATION_TYPE><NORAD_CAT_ID>54657</NORAD_CAT_ID><ELEMENT_SET_NO>999</ELEMENT_SET_NO><REV_AT_EPOCH>12359</REV_AT_EPOCH><BSTAR>.18319E-3</BSTAR><MEAN_MOTION_DOT>.89E-6</MEAN_MOTION_DOT><MEAN_MOTION_DDOT>0</MEAN_MOTION_DDOT></tleParameters></data></segment></body></omm>
<omm id="CCSDS_OMM_VERS" version="2.0">
<header><CREATION_DATE/><ORIGINATOR/></header><body><segment><metadata><OBJECT_NAME>ONEWEB-0592</OBJECT_NAME><OBJECT_ID>2022-166S</OBJECT_ID><CENTER_NAME>EARTH</CENTER_NAME><REF_FRAME>TEME</REF_FRAME><TIME_SYSTEM>UTC</TIME_SYSTEM><MEAN_ELEMENT_THEORY>SGP4</MEAN_ELEMENT_THEORY></metadata><data><meanElements><EPOCH>2025-06-19T10:09:22.652640</EPOCH><MEAN_MOTION>13.21826837</MEAN_MOTION><ECCENTRICITY>.0001709</ECCENTRICITY><INCLINATION>87.9258</INCLINATION><RA_OF_ASC_NODE>316.2972</RA_OF_ASC_NODE><ARG_OF_PERICENTER>93.3802</ARG_OF_PERICENTER><MEAN_ANOMALY>266.7527</MEAN_ANOMALY></meanElements><tleParameters><EPHEMERIS_TYPE>0</EPHEMERIS_TYPE><CLASSIFICATION_TYPE>U</CLASSIFICATION_TYPE><NORAD_CAT_ID>54658</NORAD_CAT_ID><ELEMENT_SET_NO>999</ELEMENT_SET_NO><REV_AT_EPOCH>12351</REV_AT_EPOCH><BSTAR>.20075E-3</BSTAR><MEAN_MOTION_DOT>.96E-6</MEAN_MOTION_DOT><MEAN_MOTION_DDOT>0</MEAN_MOTION_DDOT></tleParameters></data></segment></body></omm>
<omm id="CCSDS_OMM_VERS" version="2.0">
<header><CREATION_DATE/><ORIGINATOR/></header><body><segment><metadata><OBJECT_NAME>ONEWEB-0593</OBJECT_NAME><OBJECT_ID>2022-166T</OBJECT_ID><CENTER_NAME>EARTH</CENTER_NAME><REF_FRAME>TEME</REF_FRAME><TIME_SYSTEM>UTC</TIME_SYSTEM><MEAN_ELEMENT_THEORY>SGP4</MEAN_ELEMENT_THEORY></metadata><data><meanElements><EPOCH>2025-06-19T03:27:25.490592</EPOCH><MEAN_MOTION>13.21826632</MEAN_MOTION><ECCENTRICITY>.0001654</ECCENTRICITY><INCLINATION>87.9261</INCLINATION><RA_OF_ASC_NODE>316.3915</RA_OF_ASC_NODE><ARG_OF_PERICENTER>95.5591</ARG_OF_PERICENTER><MEAN_ANOMALY>264.5731</MEAN_ANOMALY></meanElements><tleParameters><EPHEMERIS_TYPE>0</EPHEMERIS_TYPE><CLASSIFICATION_TYPE>U</CLASSIFICATION_TYPE><NORAD_CAT_ID>54659</NORAD_CAT_ID><ELEMENT_SET_NO>999</ELEMENT_SET_NO><REV_AT_EPOCH>12358</REV_AT_EPOCH><BSTAR>.24528E-4</BSTAR><MEAN_MOTION_DOT>.23E-6</MEAN_MOTION_DOT><MEAN_MOTION_DDOT>0</MEAN_MOTION_DDOT></tleParameters></data></segment></body></omm>
<omm id="CCSDS_OMM_VERS" version="2.0">
<header><CREATION_DATE/><ORIGINATOR/></header><body><segment><metadata><OBJECT_NAME>ONEWEB-0594</OBJECT_NAME><OBJECT_ID>2022-166U</OBJECT_ID><CENTER_NAME>EARTH</CENTER_NAME><REF_FRAME>TEME</REF_FRAME><TIME_SYSTEM>UTC</TIME_SYSTEM><MEAN_ELEMENT_THEORY>SGP4</MEAN_ELEMENT_THEORY></metadata><data><meanElements><EPOCH>2025-06-19T09:21:41.104512</EPOCH><MEAN_MOTION>13.21826316</MEAN_MOTION><ECCENTRICITY>.0001874</ECCENTRICITY><INCLINATION>87.9263</INCLINATION><RA_OF_ASC_NODE>316.3556</RA_OF_ASC_NODE><ARG_OF_PERICENTER>98.5778</ARG_OF_PERICENTER><MEAN_ANOMALY>261.5568</MEAN_ANOMALY></meanElements><tleParameters><EPHEMERIS_TYPE>0</EPHEMERIS_TYPE><CLASSIFICATION_TYPE>U</CLASSIFICATION_TYPE><NORAD_CAT_ID>54660</NORAD_CAT_ID><ELEMENT_SET_NO>999</ELEMENT_SET_NO><REV_AT_EPOCH>12363</REV_AT_EPOCH><BSTAR>.32401E-4</BSTAR><MEAN_MOTION_DOT>.26E-6</MEAN_MOTION_DOT><MEAN_MOTION_DDOT>0</MEAN_MOTION_DDOT></tleParameters></data></segment></body></omm>
<omm id="CCSDS_OMM_VERS" version="2.0">
<header><CREATION_DATE/><ORIGINATOR/></header><body><segment><metadata><OBJECT_NAME>ONEWEB-0595</OBJECT_NAME><OBJECT_ID>2022-166V</OBJECT_ID><CENTER_NAME>EARTH</CENTER_NAME><REF_FRAME>TEME</REF_FRAME><TIME_SYSTEM>UTC</TIME_SYSTEM><MEAN_ELEMENT_THEORY>SGP4</MEAN_ELEMENT_THEORY></metadata><data><meanElements><EPOCH>2025-06-19T08:49:53.340672</EPOCH><MEAN_MOTION>13.21827442</MEAN_MOTION><ECCENTRICITY>.0002062</ECCENTRICITY><INCLINATION>87.9262</INCLINATION><RA_OF_ASC_NODE>316.3381</RA_OF_ASC_NODE><ARG_OF_PERICENTER>96.6019</ARG_OF_PERICENTER><MEAN_ANOMALY>263.5350</MEAN_ANOMALY></meanElements><tleParameters><EPHEMERIS_TYPE>0</EPHEMERIS_TYPE><CLASSIFICATION_TYPE>U</CLASSIFICATION_TYPE><NORAD_CAT_ID>54661</NORAD_CAT_ID><ELEMENT_SET_NO>999</ELEMENT_SET_NO><REV_AT_EPOCH>12360</REV_AT_EPOCH><BSTAR>.17193E-3</BSTAR><MEAN_MOTION_DOT>.84E-6</MEAN_MOTION_DOT><MEAN_MOTION_DDOT>0</MEAN_MOTION_DDOT></tleParameters></data></segment></body></omm>
<omm id="CCSDS_OMM_VERS" version="2.0">
<header><CREATION_DATE/><ORIGINATOR/></header><body><segment><metadata><OBJECT_NAME>ONEWEB-0596</OBJECT_NAME><OBJECT_ID>2022-166W</OBJECT_ID><CENTER_NAME>EARTH</CENTER_NAME><REF_FRAME>TEME</REF_FRAME><TIME_SYSTEM>UTC</TIME_SYSTEM><MEAN_ELEMENT_THEORY>SGP4</MEAN_ELEMENT_THEORY></metadata><data><meanElements><EPOCH>2025-06-19T10:00:17.789184</EPOCH><MEAN_MOTION>13.21827037</MEAN_MOTION><ECCENTRICITY>.0001854</ECCENTRICITY><INCLINATION>87.9264</INCLINATION><RA_OF_ASC_NODE>316.3411</RA_OF_ASC_NODE><ARG_OF_PERICENTER>94.7878</ARG_OF_PERICENTER><MEAN_ANOMALY>265.3468</MEAN_ANOMALY></meanElements><tleParameters><EPHEMERIS_TYPE>0</EPHEMERIS_TYPE><CLASSIFICATION_TYPE>U</CLASSIFICATION_TYPE><NORAD_CAT_ID>54662</NORAD_CAT_ID><ELEMENT_SET_NO>999</ELEMENT_SET_NO><REV_AT_EPOCH>12361</REV_AT_EPOCH><BSTAR>.65222E-5</BSTAR><MEAN_MOTION_DOT>.16E-6</MEAN_MOTION_DOT><MEAN_MOTION_DDOT>0</MEAN_MOTION_DDOT></tleParameters></data></segment></body></omm>

</ndm>
