ONEWEB-0589             
1 54655U 22166P   25170.38374503 -.00000011  00000+0 -59257-4 0  9995
2 54655  87.9261 316.3527 0000990  92.3162 267.8085 13.21827575123618
ONEWEB-0590             
1 54656U 22166Q   25169.95308320 -.00000044  00000+0 -13815-3 0  9996
2 54656  87.9250 316.4199 0001981  84.0318 276.1042 13.21823800123540
ONEWEB-0591             
1 54657U 22166R   25170.11723983  .00000089  00000+0  18319-3 0  9994
2 54657  87.9261 316.4059 0001677  94.3548 265.7778 13.21826762123594
ONEWEB-0592             
1 54658U 22166S   25170.42317885  .00000096  00000+0  20075-3 0  9999
2 54658  87.9258 316.2972 0001709  93.3802 266.7527 13.21826837123519
ONEWEB-0593             
1 54659U 22166T   25170.14404503  .00000023  00000+0  24528-4 0  9991
2 54659  87.9261 316.3915 0001654  95.5591 264.5731 13.21826632123583
ONEWEB-0594             
1 54660U 22166U   25170.39005908  .00000026  00000+0  32401-4 0  9998
2 54660  87.9263 316.3556 0001874  98.5778 261.5568 13.21826316123632
ONEWEB-0595             
1 54661U 22166V   25170.36797848  .00000084  00000+0  17193-3 0  9991
2 54661  87.9262 316.3381 0002062  96.6019 263.5350 13.21827442123604
ONEWEB-0596             
1 54662U 22166W   25170.41687256  .00000016  00000+0  65222-5 0  9992
2 54662  87.9264 316.3411 0001854  94.7878 265.3468 13.21827037123612
